{"type": "FeatureCollection", "features": [ {"type": "Feature", "properties": {"norad_id": 66876, "name": "STARLINK-35702", "group": "last-30-days", "lat": -26.90010544591685, "lon": -19.33626325181172, "alt_km": 291.43461719626157, "timestamp": "2025-12-11T20:41:13.849551+00:00", "meta": {"OBJECT_NAME": "STARLINK-35702", "OBJECT_ID": "2025-281AE", "EPOCH": "2025-12-10T18:00:02.000160", "MEAN_MOTION": 15.97131878, "ECCENTRICITY": 0.0001742, "INCLINATION": 43.002, "RA_OF_ASC_NODE": 134.6356, "ARG_OF_PERICENTER": 276.3063, "MEAN_ANOMALY": 29.2605, "EPHEMERIS_TYPE": 0, "CLASSIFICATION_TYPE": "U", "NORAD_CAT_ID": 66876, "ELEMENT_SET_NO": 999, "REV_AT_EPOCH": 247, "BSTAR": -0.0027497, "MEAN_MOTION_DOT": -0.01244535, "MEAN_MOTION_DDOT": 0.00047441}, "tle": {"line1": "1 66876U 25281AE  25344.75002315 -.01244535  47441-3 -27497-2 0  9992", "line2": "2 66876  43.0020 134.6356 0001742 276.3063  29.2605 15.97131878  2470"}}, "geometry": {"type": "Point", "coordinates": [-19.33626325181172, -26.90010544591685]}}, {"type": "Feature", "properties": {"norad_id": 66877, "name": "ZQ-3 R/B", "group": "last-30-days", "lat": 25.625464937368463, "lon": 79.22790965038644, "alt_km": 1256.1099698084272, "timestamp": "2025-12-11T20:41:13.849563+00:00", "meta": {"OBJECT_NAME": "ZQ-3 R/B", "OBJECT_ID": "2025-282A", "EPOCH": "2025-12-11T12:17:10.023648", "MEAN_MOTION": 14.55777635, "ECCENTRICITY": 0.07945377, "INCLINATION": 56.9524, "RA_OF_ASC_NODE": 62.3657, "ARG_OF_PERICENTER": 217.8291, "MEAN_ANOMALY": 136.4277, "EPHEMERIS_TYPE": 0, "CLASSIFICATION_TYPE": "U", "NORAD_CAT_ID": 66877, "ELEMENT_SET_NO": 999, "REV_AT_EPOCH": 121, "BSTAR": 0.00026236173, "MEAN_MOTION_DOT": 0.01286835, "MEAN_MOTION_DDOT": 7.412602e-06}, "tle": {"line1": "1 66877U 25282A   25345.51192157  .01286835  74126-5  26236-3 0  9993", "line2": "2 66877  56.9524  62.3657 0794537 217.8291 136.4277 14.55777635  1215"}}, "geometry": {"type": "Point", "coordinates": [79.22790965038644, 25.625464937368463]}}, {"type": "Feature", "properties": {"norad_id": 66906, "name": "1998-067XS", "group": "last-30-days", "lat": -12.187153410764449, "lon": -23.377694941828846, "alt_km": 414.921751316444, "timestamp": "2025-12-11T20:41:13.849574+00:00", "meta": {"OBJECT_NAME": "1998-067XS", "OBJECT_ID": "1998-067XS", "EPOCH": "2025-12-11T04:22:42.253536", "MEAN_MOTION": 15.50439588, "ECCENTRICITY": 0.00037466, "INCLINATION": 51.6302, "RA_OF_ASC_NODE": 150.1407, "ARG_OF_PERICENTER": 195.2111, "MEAN_ANOMALY": 164.8766, "EPHEMERIS_TYPE": 0, "CLASSIFICATION_TYPE": "U", "NORAD_CAT_ID": 66906, "ELEMENT_SET_NO": 999, "REV_AT_EPOCH": 137, "BSTAR": 0.00067409178, "MEAN_MOTION_DOT": 0.00038814, "MEAN_MOTION_DDOT": 0}, "tle": {"line1": "1 66906U 98067XS  25345.18243349  .00038814  00000+0  67409-3 0  9992", "line2": "2 66906  51.6302 150.1407 0003746 195.2111 164.8766 15.50439588  1371"}}, "geometry": {"type": "Point", "coordinates": [-23.377694941828846, -12.187153410764449]}}, {"type": "Feature", "properties": {"norad_id": 66907, "name": "1998-067XT", "group": "last-30-days", "lat": -21.573538682415855, "lon": -15.002774231111278, "alt_km": 413.0125912225021, "timestamp": "2025-12-11T20:41:13.849584+00:00", "meta": {"OBJECT_NAME": "1998-067XT", "OBJECT_ID": "1998-067XT", "EPOCH": "2025-12-09T12:07:37.114752", "MEAN_MOTION": 15.50864429, "ECCENTRICITY": 0.00048036, "INCLINATION": 51.6307, "RA_OF_ASC_NODE": 158.4423, "ARG_OF_PERICENTER": 208.5081, "MEAN_ANOMALY": 151.5646, "EPHEMERIS_TYPE": 0, "CLASSIFICATION_TYPE": "U", "NORAD_CAT_ID": 66907, "ELEMENT_SET_NO": 999, "REV_AT_EPOCH": 111, "BSTAR": 0.0012921241, "MEAN_MOTION_DOT": 0.00076342, "MEAN_MOTION_DDOT": 0}, "tle": {"line1": "1 66907U 98067XT  25343.50529068  .00076342  00000+0  12921-2 0  9998", "line2": "2 66907  51.6307 158.4423 0004803 208.5081 151.5646 15.50864429  1113"}}, "geometry": {"type": "Point", "coordinates": [-15.002774231111278, -21.573538682415855]}}, {"type": "Feature", "properties": {"norad_id": 66908, "name": "1998-067XU", "group": "last-30-days", "lat": -22.869843184307953, "lon": -13.737528912636066, "alt_km": 412.79603965336264, "timestamp": "2025-12-11T20:41:13.849594+00:00", "meta": {"OBJECT_NAME": "1998-067XU", "OBJECT_ID": "1998-067XU", "EPOCH": "2025-12-10T15:57:23.331168", "MEAN_MOTION": 15.51115637, "ECCENTRICITY": 0.00048129, "INCLINATION": 51.6304, "RA_OF_ASC_NODE": 152.6848, "ARG_OF_PERICENTER": 213.5482, "MEAN_ANOMALY": 146.5203, "EPHEMERIS_TYPE": 0, "CLASSIFICATION_TYPE": "U", "NORAD_CAT_ID": 66908, "ELEMENT_SET_NO": 999, "REV_AT_EPOCH": 129, "BSTAR": 0.0014713865, "MEAN_MOTION_DOT": 0.00087912, "MEAN_MOTION_DDOT": 0}, "tle": {"line1": "1 66908U 98067XU  25344.66485337  .00087912  00000+0  14714-2 0  9994", "line2": "2 66908  51.6304 152.6848 0004812 213.5482 146.5203 15.51115637  1292"}}, "geometry": {"type": "Point", "coordinates": [-13.737528912636066, -22.869843184307953]}}, {"type": "Feature", "properties": {"norad_id": 66909, "name": "SILVERSAT", "group": "last-30-days", "lat": -24.184778843350827, "lon": -12.418281491439675, "alt_km": 412.72552823477145, "timestamp": "2025-12-11T20:41:13.849606+00:00", "meta": {"OBJECT_NAME": "SILVERSAT", "OBJECT_ID": "1998-067XV", "EPOCH": "2025-12-11T15:08:30.108192", "MEAN_MOTION": 15.5141128, "ECCENTRICITY": 0.00045448, "INCLINATION": 51.6302, "RA_OF_ASC_NODE": 147.8859, "ARG_OF_PERICENTER": 221.0614, "MEAN_ANOMALY": 139.0034, "EPHEMERIS_TYPE": 0, "CLASSIFICATION_TYPE": "U", "NORAD_CAT_ID": 66909, "ELEMENT_SET_NO": 999, "REV_AT_EPOCH": 144, "BSTAR": 0.0013283829, "MEAN_MOTION_DOT": 0.00080084, "MEAN_MOTION_DDOT": 0}, "tle": {"line1": "1 66909U 98067XV  25345.63090403  .00080084  00000+0  13284-2 0  9993", "line2": "2 66909  51.6302 147.8859 0004544 221.0614 139.0034 15.51411280  1441"}}, "geometry": {"type": "Point", "coordinates": [-12.418281491439675, -24.184778843350827]}}, {"type": "Feature", "properties": {"norad_id": 66910, "name": "1998-067XW", "group": "last-30-days", "lat": -29.880145645949938, "lon": -6.1987686891561316, "alt_km": 412.2013744822989, "timestamp": "2025-12-11T20:41:13.849617+00:00", "meta": {"OBJECT_NAME": "1998-067XW", "OBJECT_ID": "1998-067XW", "EPOCH": "2025-12-11T12:00:59.894208", "MEAN_MOTION": 15.51542196, "ECCENTRICITY": 0.00053507, "INCLINATION": 51.6307, "RA_OF_ASC_NODE": 148.5174, "ARG_OF_PERICENTER": 201.355, "MEAN_ANOMALY": 158.7217, "EPHEMERIS_TYPE": 0, "CLASSIFICATION_TYPE": "U", "NORAD_CAT_ID": 66910, "ELEMENT_SET_NO": 999, "REV_AT_EPOCH": 142, "BSTAR": 0.0016174677, "MEAN_MOTION_DOT": 0.00098314, "MEAN_MOTION_DDOT": 0}, "tle": {"line1": "1 66910U 98067XW  25345.50069322  .00098314  00000+0  16175-2 0  9994", "line2": "2 66910  51.6307 148.5174 0005350 201.3550 158.7217 15.51542196  1422"}}, "geometry": {"type": "Point", "coordinates": [-6.1987686891561316, -29.880145645949938]}}, {"type": "Feature", "properties": {"norad_id": 66911, "name": "1998-067XX", "group": "last-30-days", "lat": -32.06727920419556, "lon": -3.5248399423901984, "alt_km": 411.94588792051763, "timestamp": "2025-12-11T20:41:13.849627+00:00", "meta": {"OBJECT_NAME": "1998-067XX", "OBJECT_ID": "1998-067XX", "EPOCH": "2025-12-11T04:16:32.481408", "MEAN_MOTION": 15.5166419, "ECCENTRICITY": 0.00051917, "INCLINATION": 51.6299, "RA_OF_ASC_NODE": 150.1129, "ARG_OF_PERICENTER": 201.0739, "MEAN_ANOMALY": 159.0038, "EPHEMERIS_TYPE": 0, "CLASSIFICATION_TYPE": "U", "NORAD_CAT_ID": 66911, "ELEMENT_SET_NO": 999, "REV_AT_EPOCH": 136, "BSTAR": 0.0016096113, "MEAN_MOTION_DOT": 0.00098261, "MEAN_MOTION_DDOT": 0}, "tle": {"line1": "1 66911U 98067XX  25345.17815372  .00098261  00000+0  16096-2 0  9995", "line2": "2 66911  51.6299 150.1129 0005191 201.0739 159.0038 15.51664190  1368"}}, "geometry": {"type": "Point", "coordinates": [-3.5248399423901984, -32.06727920419556]}}, {"type": "Feature", "properties": {"norad_id": 66912, "name": "1998-067XY", "group": "last-30-days", "lat": -18.41073574917896, "lon": -17.953895441431833, "alt_km": 413.51517975200386, "timestamp": "2025-12-11T20:41:13.849639+00:00", "meta": {"OBJECT_NAME": "1998-067XY", "OBJECT_ID": "1998-067XY", "EPOCH": "2025-12-11T12:04:50.239200", "MEAN_MOTION": 15.50956901, "ECCENTRICITY": 0.0004664, "INCLINATION": 51.6302, "RA_OF_ASC_NODE": 148.5351, "ARG_OF_PERICENTER": 216.8191, "MEAN_ANOMALY": 143.2479, "EPHEMERIS_TYPE": 0, "CLASSIFICATION_TYPE": "U", "NORAD_CAT_ID": 66912, "ELEMENT_SET_NO": 999, "REV_AT_EPOCH": 141, "BSTAR": 0.0010602588, "MEAN_MOTION_DOT": 0.00062656, "MEAN_MOTION_DDOT": 0}, "tle": {"line1": "1 66912U 98067XY  25345.50335925  .00062656  00000+0  10603-2 0  9991", "line2": "2 66912  51.6302 148.5351 0004664 216.8191 143.2479 15.50956901  1415"}}, "geometry": {"type": "Point", "coordinates": [-17.953895441431833, -18.41073574917896]}}, {"type": "Feature", "properties": {"norad_id": 66913, "name": "2025-284A", "group": "last-30-days", "lat": -55.54284690247506, "lon": 116.6045257314071, "alt_km": 516.9284118300175, "timestamp": "2025-12-11T20:41:13.849652+00:00", "meta": {"OBJECT_NAME": "2025-284A", "OBJECT_ID": "2025-284A", "EPOCH": "2025-12-11T14:36:46.539936", "MEAN_MOTION": 15.18932242, "ECCENTRICITY": 0.00120204, "INCLINATION": 80.4046, "RA_OF_ASC_NODE": 131.1983, "ARG_OF_PERICENTER": 208.0709, "MEAN_ANOMALY": 151.9872, "EPHEMERIS_TYPE": 0, "CLASSIFICATION_TYPE": "U", "NORAD_CAT_ID": 66913, "ELEMENT_SET_NO": 999, "REV_AT_EPOCH": 95, "BSTAR": 0.00070955263, "MEAN_MOTION_DOT": 0.00014878, "MEAN_MOTION_DDOT": 0}, "tle": {"line1": "1 66913U 25284A   25345.60887199  .00014878  00000+0  70955-3 0  9999", "line2": "2 66913  80.4046 131.1983 0012020 208.0709 151.9872 15.18932242   950"}}, "geometry": {"type": "Point", "coordinates": [116.6045257314071, -55.54284690247506]}}]}